[{"OBJECT_NAME":"TEVEL2-3","OBJECT_ID":"2025-052J","EPOCH":"2026-03-09T15:29:22.754400","MEAN_MOTION":15.30377031,"ECCENTRICITY":0.0004761,"INCLINATION":97.3994,"RA_OF_ASC_NODE":324.7775,"ARG_OF_PERICENTER":105.7353,"MEAN_ANOMALY":254.4413,"EPHEMERIS_TYPE":0,"CLASSIFICATION_TYPE":"U","NORAD_CAT_ID":63218,"ELEMENT_SET_NO":999,"REV_AT_EPOCH":5485,"BSTAR":0.00069446,"MEAN_MOTION_DOT":0.00020365,"MEAN_MOTION_DDOT":0},{"OBJECT_NAME":"STARLINK-35952","OBJECT_ID":"2025-265E","EPOCH":"2026-03-09T13:47:57.336288","MEAN_MOTION":15.27588666,"ECCENTRICITY":6.41e-5,"INCLINATION":43.0004,"RA_OF_ASC_NODE":278.7826,"ARG_OF_PERICENTER":301.9847,"MEAN_ANOMALY":58.0942,"EPHEMERIS_TYPE":0,"CLASSIFICATION_TYPE":"U","NORAD_CAT_ID":66520,"ELEMENT_SET_NO":999,"REV_AT_EPOCH":1709,"BSTAR":0.0010985,"MEAN_MOTION_DOT":0.00030098,"MEAN_MOTION_DDOT":0}]
