TEVEL2-3                
1 63218U 25052J   26068.64540225  .00020365  00000+0  69446-3 0  9991
2 63218  97.3994 324.7775 0004761 105.7353 254.4413 15.30377031 54855
STARLINK-35952          
1 66520U 25265E   26068.57496917  .00030098  00000+0  10985-2 0  9993
2 66520  43.0004 278.7826 0000641 301.9847  58.0942 15.27588666 17094
